STARLINK-30226          
1 57497U 23113C   26166.76416720  .00000309  00000+0  20787-4 0  9995
2 57497  43.0087 182.2773 0002394 273.0088  87.0490 15.27576233158577
STARLINK-30203          
1 57498U 23113D   26166.74102530  .00001051  00000+0  47728-4 0  9994
2 57498  43.0004 182.0926 0001167 275.7688  84.3030 15.27564899158695
STARLINK-30169          
1 57499U 23113E   26166.71216752 -.00001270  00000+0 -36629-4 0  9997
2 57499  42.9983 168.3091 0002020 264.5027  95.5594 15.27569393158673
STARLINK-30164          
1 57500U 23113F   26166.75901223  .00000490  00000+0  27344-4 0  9993
2 57500  43.0059 182.2252 0001442 269.9514  90.1172 15.27580741158676
STARLINK-30072          
1 57501U 23113G   26165.34235680 -.00000199  00000+0  22704-5 0  9998
2 57501  42.9923 190.4903 0000829 227.9673 132.1108 15.27574103158342
STARLINK-30230          
1 57503U 23113J   26166.75644102  .00000685  00000+0  34400-4 0  9993
2 57503  43.0046 182.1876 0001396 270.3512  89.7180 15.27581369158566
STARLINK-30213          
1 57504U 23113K   26166.33086498 -.00000622  00000+0 -13078-4 0  9997
2 57504  43.0041 185.0169 0001579 279.2821  80.7852 15.27574973158608
STARLINK-30227          
1 57505U 23113L   26166.71987651  .00027666  00000+0  10733-2 0  9999
2 57505  42.9967 173.2065 0008260  89.6484 270.5313 15.25579002158775
STARLINK-30212          
1 57506U 23113M   26166.33473136  .00004071  00000+0  15747-3 0  9992
2 57506  43.0030 185.0450 0001778 277.7194  82.3455 15.27562694158444
STARLINK-30219          
1 57507U 23113N   26166.76017028  .00003353  00000+0  11788-3 0  9997
2 57507  42.9994 181.3597 0000543  52.1555 307.9347 15.31170956158681
STARLINK-30074          
1 57508U 23113P   26166.77058099 -.00000123  00000+0  50816-5 0  9992
2 57508  43.0054 182.2980 0001805 246.9219 113.1442 15.27578375158460
STARLINK-30082          
1 57509U 23113Q   26166.75002105 -.00000314  00000+0 -18772-5 0  9996
2 57509  43.0033 182.1604 0001520 270.8938  89.1739 15.27575671158678
STARLINK-30153          
1 57510U 23113R   26166.92819257  .00000150  00000+0  14970-4 0  9992
2 57510  43.0006 180.9308 0001175 269.1884  90.8833 15.27577223158594
STARLINK-30147          
1 57511U 23113S   26166.74231310  .00000061  00000+0  11730-4 0  9993
2 57511  42.9990 182.1011 0001261 270.9794  89.0914 15.27576894158678
STARLINK-30157          
1 57512U 23113T   26166.68649038 -.00000177  00000+0  30998-5 0  9994
2 57512  43.0015 156.8401 0000910 259.0625 101.0124 15.27574837158966
STARLINK-30168          
1 57513U 23113U   26166.73845626  .00000311  00000+0  20808-4 0  9999
2 57513  43.0012 182.0452 0001105 276.1145  83.9581 15.27572963158519
STARLINK-30231          
1 57514U 23113V   26166.36156163  .00000650  00000+0  33127-4 0  9994
2 57514  43.0005 184.3945 0000592 272.1371  87.9413 15.27581071158619
STARLINK-30081          
1 57515U 23113W   26166.93076359 -.00000148  00000+0  41588-5 0  9990
2 57515  42.9997 180.9434 0001341 278.8188  81.2512 15.27580765158701
STARLINK-30149          
1 57516U 23113X   26166.74873389 -.00010325  00000+0 -36578-3 0  9998
2 57516  43.0013 182.1519 0001510 259.8014 100.2667 15.27616400158570
STARLINK-30259          
1 57521U 23115A   26166.72238589 -.00000061  00000+0  73006-5 0  9995
2 57521  43.0050 168.0043 0001645 276.3814  83.6850 15.27576389158561
STARLINK-30256          
1 57522U 23115B   26164.32495839 -.00001511  00000+0 -45309-4 0  9999
2 57522  42.9942 181.8195 0006294 282.0019  78.0127 15.27563517156974
STARLINK-30261          
1 57523U 23115C   26165.29801803  .00000460  00000+0  26263-4 0  9997
2 57523  43.0034 176.2263 0001976 273.7233  86.3393 15.27578865157127
STARLINK-30260          
1 57524U 23115D   26166.71853532  .00000059  00000+0  11695-4 0  9999
2 57524  43.0096 167.9925 0001501 277.4605  82.6076 15.27576680157340
STARLINK-30253          
1 57525U 23115E   26166.73009917  .00000166  00000+0  15528-4 0  9990
2 57525  42.9943 168.0599 0000824 234.0379 126.0396 15.27576653157341
STARLINK-30257          
1 57526U 23115F   26166.72625360 -.00000156  00000+0  38467-5 0  9994
2 57526  42.9985 168.0684 0001355 323.8556  36.2204 15.27572387157347
STARLINK-30250          
1 57527U 23115G   26166.73394955 -.00000083  00000+0  65029-5 0  9992
2 57527  43.0047 168.0850 0001761 277.8775  82.1877 15.27576467158245
STARLINK-30269          
1 57528U 23115H   26165.18267046 -.00000030  00000+0  84203-5 0  9998
2 57528  42.9994 177.1031 0001341 271.9523  88.1175 15.27573832157101
STARLINK-30266          
1 57529U 23115J   26166.70439933  .00000288  00000+0  19977-4 0  9993
2 57529  43.0015 167.8714 0001004 265.5282  94.5455 15.27571148157345
STARLINK-30270          
1 57530U 23115K   26166.69669721  .00002646  00000+0  10565-3 0  9996
2 57530  43.0054 167.8258 0000263 255.0607 105.0216 15.27576387157347
STARLINK-30268          
1 57531U 23115L   26165.30958264  .00001347  00000+0  58464-4 0  9995
2 57531  43.0034 176.3306 0000823 242.6078 117.4690 15.27584501157127
