OBJECT_NAME,OBJECT_ID,EPOCH,MEAN_MOTION,ECCENTRICITY,INCLINATION,RA_OF_ASC_NODE,ARG_OF_PERICENTER,MEAN_ANOMALY,EPHEMERIS_TYPE,CLASSIFICATION_TYPE,NORAD_CAT_ID,ELEMENT_SET_NO,REV_AT_EPOCH,BSTAR,MEAN_MOTION_DOT,MEAN_MOTION_DDOT
STARLINK-30226,2023-113C,2026-06-15T18:20:24.046080,15.27576233,.0002394,43.0087,182.2773,273.0088,87.0490,0,U,57497,999,15857,.20787108E-4,.309E-5,0
STARLINK-30203,2023-113D,2026-06-15T17:47:04.585920,15.27564899,.00011673,43.0004,182.0926,275.7688,84.3030,0,U,57498,999,15869,.47728105E-4,.1051E-4,0
STARLINK-30169,2023-113E,2026-06-15T17:05:31.273728,15.27569393,.00020208,42.9983,168.3091,264.5027,95.5594,0,U,57499,999,15867,-.36629284E-4,-.127E-4,0
STARLINK-30164,2023-113F,2026-06-15T18:12:58.656672,15.27580741,.00014427,43.0059,182.2252,269.9514,90.1172,0,U,57500,999,15867,.27344357E-4,.49E-5,0
STARLINK-30072,2023-113G,2026-06-14T08:12:59.627520,15.27574103,.00008292,42.9923,190.4903,227.9673,132.1108,0,U,57501,999,15834,.2270414E-5,-.199E-5,0
STARLINK-30230,2023-113J,2026-06-15T18:09:16.504128,15.27581369,.0001396,43.0046,182.1876,270.3512,89.7180,0,U,57503,999,15856,.34400077E-4,.685E-5,0
STARLINK-30213,2023-113K,2026-06-15T07:56:26.734272,15.27574973,.00015795,43.0041,185.0169,279.2821,80.7852,0,U,57504,999,15860,-.13078056E-4,-.622E-5,0
STARLINK-30227,2023-113L,2026-06-15T17:16:37.330464,15.25579002,.00082603,42.9967,173.2065,89.6484,270.5313,0,U,57505,999,15877,.10732839E-2,.27666E-3,0
STARLINK-30212,2023-113M,2026-06-15T08:02:00.789504,15.27562694,.00017788,43.0030,185.0450,277.7194,82.3455,0,U,57506,999,15844,.15746944E-3,.4071E-4,0
STARLINK-30219,2023-113N,2026-06-15T18:14:38.712192,15.31170956,.00005437,42.9994,181.3597,52.1555,307.9347,0,U,57507,999,15868,.11787963E-3,.3353E-4,0
STARLINK-30074,2023-113P,2026-06-15T18:29:38.197536,15.27578375,.00018056,43.0054,182.2980,246.9219,113.1442,0,U,57508,999,15846,.5081626E-5,-.123E-5,0
STARLINK-30082,2023-113Q,2026-06-15T18:00:01.818720,15.27575671,.00015204,43.0033,182.1604,270.8938,89.1739,0,U,57509,999,15867,-.1877221E-5,-.314E-5,0
STARLINK-30153,2023-113R,2026-06-15T22:16:35.838048,15.27577223,.00011757,43.0006,180.9308,269.1884,90.8833,0,U,57510,999,15859,.14970314E-4,.15E-5,0
STARLINK-30147,2023-113S,2026-06-15T17:48:55.851840,15.27576894,.0001261,42.9990,182.1011,270.9794,89.0914,0,U,57511,999,15867,.11729656E-4,.61E-6,0
STARLINK-30157,2023-113T,2026-06-15T16:28:32.768832,15.27574837,.00009108,43.0015,156.8401,259.0625,101.0124,0,U,57512,999,15896,.309979E-5,-.177E-5,0
STARLINK-30168,2023-113U,2026-06-15T17:43:22.620864,15.27572963,.0001105,43.0012,182.0452,276.1145,83.9581,0,U,57513,999,15851,.2080803E-4,.311E-5,0
STARLINK-30231,2023-113V,2026-06-15T08:40:38.924832,15.27581071,.0000592,43.0005,184.3945,272.1371,87.9413,0,U,57514,999,15861,.33126502E-4,.65E-5,0
STARLINK-30081,2023-113W,2026-06-15T22:20:17.974176,15.27580765,.0001341,42.9997,180.9434,278.8188,81.2512,0,U,57515,999,15870,.4158847E-5,-.148E-5,0
STARLINK-30149,2023-113X,2026-06-15T17:58:10.608096,15.27616400,.00015104,43.0013,182.1519,259.8014,100.2667,0,U,57516,999,15857,-.36578186E-3,-.10325E-3,0
STARLINK-30259,2023-115A,2026-06-15T17:20:14.140896,15.27576389,.00016455,43.0050,168.0043,276.3814,83.6850,0,U,57521,999,15856,.7300604E-5,-.61E-6,0
STARLINK-30256,2023-115B,2026-06-13T07:47:56.404896,15.27563517,.00062949,42.9942,181.8195,282.0019,78.0127,0,U,57522,999,15697,-.45308774E-4,-.1511E-4,0
STARLINK-30261,2023-115C,2026-06-14T07:09:08.757792,15.27578865,.0001976,43.0034,176.2263,273.7233,86.3393,0,U,57523,999,15712,.26263E-4,.46E-5,0
STARLINK-30260,2023-115D,2026-06-15T17:14:41.451648,15.27576680,.00015017,43.0096,167.9925,277.4605,82.6076,0,U,57524,999,15734,.11694909E-4,.59E-6,0
STARLINK-30253,2023-115E,2026-06-15T17:31:20.568288,15.27576653,.00008244,42.9943,168.0599,234.0379,126.0396,0,U,57525,999,15734,.15528275E-4,.166E-5,0
STARLINK-30257,2023-115F,2026-06-15T17:25:48.311040,15.27572387,.00013552,42.9985,168.0684,323.8556,36.2204,0,U,57526,999,15734,.3846672E-5,-.156E-5,0
STARLINK-30250,2023-115G,2026-06-15T17:36:53.241120,15.27576467,.00017617,43.0047,168.0850,277.8775,82.1877,0,U,57527,999,15824,.6502917E-5,-.83E-6,0
STARLINK-30269,2023-115H,2026-06-14T04:23:02.727744,15.27573832,.00013419,42.9994,177.1031,271.9523,88.1175,0,U,57528,999,15710,.8420322E-5,-.3E-6,0
STARLINK-30266,2023-115J,2026-06-15T16:54:20.102112,15.27571148,.00010042,43.0015,167.8714,265.5282,94.5455,0,U,57529,999,15734,.19976763E-4,.288E-5,0
STARLINK-30270,2023-115K,2026-06-15T16:43:14.638944,15.27576387,.00002639,43.0054,167.8258,255.0607,105.0216,0,U,57530,999,15734,.10564574E-3,.2646E-4,0
STARLINK-30268,2023-115L,2026-06-14T07:25:47.940096,15.27584501,.00008239,43.0034,176.3306,242.6078,117.4690,0,U,57531,999,15712,.58463518E-4,.1347E-4,0
